{"type": "FeatureCollection", "features": [{"type": "Feature", "properties": {"kind": "shaft", "rwy": "11"}, "geometry": {"type": "LineString", "coordinates": [[16.451996885453482, 48.148934210347136], [16.515130880787385, 48.128638680323355]]}}, {"type": "Feature", "properties": {"kind": "head", "rwy": "11"}, "geometry": {"type": "Polygon", "coordinates": [[[16.52847975217197, 48.12434096614669], [16.51817592178535, 48.1328504379395], [16.51208633919836, 48.12442684228661], [16.52847975217197, 48.12434096614669]]]}}, {"type": "Feature", "properties": {"kind": "label", "rwy": "11", "label": "RWY 11"}, "geometry": {"type": "Point", "coordinates": [16.443494266461936, 48.15166365965333]}}, {"type": "Feature", "properties": {"kind": "shaft", "rwy": "29"}, "geometry": {"type": "LineString", "coordinates": [[16.656766055625894, 48.082923162988706], [16.5937442131375, 48.10329622730509]]}}, {"type": "Feature", "properties": {"kind": "head", "rwy": "29"}, "geometry": {"type": "Polygon", "coordinates": [[[16.58040627049947, 48.10760149680767], [16.59069771304906, 48.099085504820884], [16.596791212379344, 48.10750686925744], [16.58040627049947, 48.10760149680767]]]}}, {"type": "Feature", "properties": {"kind": "label", "rwy": "29", "label": "RWY 29"}, "geometry": {"type": "Point", "coordinates": [16.665245951310986, 48.08017800441965]}}, {"type": "Feature", "properties": {"kind": "shaft", "rwy": "16"}, "geometry": {"type": "LineString", "coordinates": [[16.55318580392139, 48.17764699945742], [16.57249257622197, 48.13269092184493]]}}, {"type": "Feature", "properties": {"kind": "head", "rwy": "16"}, "geometry": {"type": "Polygon", "coordinates": [[[16.576572369066923, 48.12318056836856], [16.57922905020916, 48.13397782058397], [16.56575643993054, 48.131403629475074], [16.576572369066923, 48.12318056836856]]]}}, {"type": "Feature", "properties": {"kind": "label", "rwy": "16", "label": "RWY 16"}, "geometry": {"type": "Point", "coordinates": [16.550584229828488, 48.183698532050784]}}, {"type": "Feature", "properties": {"kind": "shaft", "rwy": "34"}, "geometry": {"type": "LineString", "coordinates": [[16.61617262774287, 48.03067811483787], [16.596942335051185, 48.07564150053672]]}}, {"type": "Feature", "properties": {"kind": "head", "rwy": "34"}, "geometry": {"type": "Polygon", "coordinates": [[[16.59287008169698, 48.08515257445664], [16.59021333695808, 48.07435498733592], [16.603671669603404, 48.07692762085547], [16.59287008169698, 48.08515257445664]]]}}, {"type": "Feature", "properties": {"kind": "label", "rwy": "34", "label": "RWY 34"}, "geometry": {"type": "Point", "coordinates": [16.618758758041686, 48.02462510649691]}}]}